FLOCK 1C-8              
1 40040U 14033AG  17270.34660394  .00001131  00000-0  11997-3 0  9997
2 40040  97.9232 185.5615 0012386 310.4661  49.5485 14.91050725177851
FLOCK 1C-3              
1 40041U 14033AH  17270.53904037  .00001020  00000-0  11487-3 0  9995
2 40041  97.9192 183.0523 0012524 321.7050  38.3278 14.88796502177727
POLYITAN-1              
1 40042U 14033AJ  17270.52734048  .00000669  00000-0  78617-4 0  9995
2 40042  97.9132 181.4460 0013985 322.4208  37.6030 14.88148650177643
TIGRISAT                
1 40043U 14033AK  17270.61234498  .00000284  00000-0  49771-4 0  9992
2 40043  97.8414 151.9472 0059494 325.8879  33.8512 14.74024658175622
LEMUR-1                 
1 40044U 14033AL  17270.60573605  .00000307  00000-0  53428-4 0  9998
2 40044  97.8412 151.6556 0058677 327.1497  32.6069 14.73849497175500
AEROCUBE 6A             
1 40045U 14033AM  17270.24193872  .00000614  00000-0  96807-4 0  9992
2 40045  97.8545 153.0236 0057791 322.4770  37.2412 14.74911619175529
AEROCUBE 6B             
1 40046U 14033AN  17270.17406565  .00000555  00000-0  88256-4 0  9994
2 40046  97.8533 152.8822 0056706 322.0684  37.6537 14.74912863175513
UKUBE-1                 
1 40074U 14037F   17270.47545323  .00000432  00000-0  59525-4 0  9999
2 40074  98.3579  30.0525 0006061  84.0982 276.0923 14.83585828174347
BRITE-PL 2              
1 40119U 14049B   17270.49006369  .00000337  00000-0  46718-4 0  9990
2 40119  97.9328 355.8366 0018871 114.0865 246.2326 14.84183690168241
FIREBIRD 4              
1 40378U 15003C   17270.53227184  .00003616  00000-0  15382-3 0  9998
2 40378  99.1188 114.9778 0135488  23.4704 337.2628 15.15931466146515
GRIFEX                  
1 40379U 15003D   17270.48701022  .00002607  00000-0  11886-3 0  9995
2 40379  99.1218 112.2691 0141733  32.4286 328.5551 15.13365253146353
EXOCUBE                 
1 40380U 15003E   17270.50866369  .00001993  00000-0  95259-4 0  9990
2 40380  99.1265 110.8175 0145634  37.1198 323.9992 15.11791944146240
DEORBITSAIL             
1 40719U 15032E   17270.48003581  .00000725  00000-0  11206-3 0  9995
2 40719  97.9672 162.8950 0016360 169.2731 190.8831 14.76162514119412
TIANWANG 1C (TW-1C)     
1 40926U 15051B   17270.58261507  .00009973  00000-0  21751-3 0  9991
2 40926  97.2192 309.3947 0012418 149.0430   3.1085 15.44351542112718
TIANWANG 1B (TW-1B)     
1 40927U 15051C   17270.59701035  .00009737  00000-0  22071-3 0  9992
2 40927  97.2288 309.3789 0012035 158.5182 352.5692 15.43217081112659
TIANWANG 1A (TW-1A)     
1 40928U 15051D   17270.47170245  .00003546  00000-0  10040-3 0  9998
2 40928  97.2185 304.4442 0012350 180.2543 285.5513 15.36867295112401
LEMUR-2-JOEL            
1 40932U 15052C   17270.41929064  .00001054  00000-0  55722-4 0  9998
2 40932   6.0060 217.8850 0014158 268.1468  91.7191 14.77531355108151
LEMUR-2-CHRIS           
1 40933U 15052D   17270.41175058  .00000332  00000-0 -42803-4 0  9990
2 40933   6.0043 216.5992 0014581 272.3226  87.5932 14.77670471108165
LEMUR-2-JEROEN          
1 40934U 15052E   17270.36096421  .00001231  00000-0  81571-4 0  9994
2 40934   6.0048 222.9884 0011505 258.3549 101.5473 14.77038800108078
LEMUR-2-PETER           
1 40935U 15052F   17269.04566037  .00000977  00000-0  47126-4 0  9997
2 40935   6.0037 233.9647 0010484 232.4692 127.4597 14.76793996107877
EXACTVIEW 9             
1 40936U 15052G   17270.29639304  .00000947  00000-0  43706-4 0  9992
2 40936   6.0017 227.8821 0010775 243.4079 116.5104 14.76292804108052
ATHENOXAT 1             
1 41168U 15077C   17270.42899063  .00002781  00000-0  11907-3 0  9997
2 41168  14.9860 142.3608 0011989 353.0218 203.9523 15.11919368 98537
GALASSIA                
1 41170U 15077E   17270.28024100  .00003420  00000-0  15286-3 0  9991
2 41170  14.9881 139.2460 0013457   9.8529 350.2054 15.12387619 98553
VELOX 2                 
1 41171U 15077F   17270.40831870  .00002723  00000-0  12282-3 0  9994
2 41171  14.9906 152.9053 0009204 324.0804  35.8898 15.10096794 98444
AGGIESAT 4              
1 41313U 98067HP  17270.27132795  .00052029  00000-0  27437-3 0  9999
2 41313  51.6381 196.6346 0003805 151.2282 208.8930 15.80113095 95030
HORYU-IV                
1 41340U 16012D   17270.09010925  .00000967  00000-0  67758-4 0  9994
2 41340  31.0048 180.8092 0014099   3.8125 356.2617 15.00710744 88331
OUFTI-1                 
1 41458U 16025C   17270.54547969  .00002189  00000-0  12009-3 0  9997
2 41458  98.1744 313.9618 0172478 307.7776  50.7934 15.03621931 77951
E-ST@R-II               
1 41459U 16025D   17270.57804671  .00002183  00000-0  12059-3 0  9996
2 41459  98.1771 313.9272 0172087 308.2048  50.3788 15.03442852 77958
AAUSAT 4                
1 41460U 16025E   17270.37770390  .00002864  00000-0  15620-3 0  9999
2 41460  98.1692 313.8867 0164313 306.5559  52.0641 15.04489293 77950
DIWATA-1                
1 41463U 98067HT  17270.51650846  .00012961  00000-0  13893-3 0  9996
2 41463  51.6414 228.3038 0001873 125.5961 339.1570 15.64205476 80809
NODES 2                 
1 41477U 98067HX  17262.38431888  .17021661  12538-4  46079-3 0  9990
2 41477  51.6074 225.8859 0003017 249.6794 110.5489 16.45625800 77086
NODES 1                 
1 41478U 98067HY  17266.27255257  .13534231  12598-4  22876-3 0  9990
2 41478  51.6086 206.1528 0005980 262.1280  97.9071 16.47641774 77698
FLOCK 2E'-1             
1 41479U 98067HZ  17270.30156163  .00044692  00000-0  30766-3 0  9997
2 41479  51.6322 214.1303 0001057  78.2172 281.8946 15.74163675 77917
FLOCK 2E'-3             
1 41480U 98067JA  17270.40561697  .00037708  00000-0  26602-3 0  9996
2 41480  51.6325 213.3486 0001917  79.9683 280.1532 15.73670826 77929
FLOCK 2E'-2             
1 41481U 98067JB  17270.42321831  .00062196  00000-0  41260-3 0  9999
2 41481  51.6297 211.1416 0001358 118.6543 241.4593 15.74880948 77940
FLOCK 2E'-4             
1 41482U 98067JC  17270.27902641  .00104603  00000-0  56906-3 0  9990
2 41482  51.6274 208.6307 0003083 128.2459 231.8820 15.79149818 77963
FLOCK 2E-1              
1 41483U 98067JD  17270.25549147  .00031160  00000-0  23888-3 0  9997
2 41483  51.6348 216.1648 0003230  80.1236 280.0127 15.71805143 77734
FLOCK 2E-2              
1 41484U 98067JE  17270.31742021  .00043100  00000-0  29584-3 0  9997
2 41484  51.6345 212.8407 0003349  94.6300 265.5082 15.74243107 77783
FLOCK 2E-3              
1 41486U 98067JG  17270.31938377  .00033742  00000-0  24542-3 0  9990
2 41486  51.6340 217.3240 0003635 108.8933 251.2460 15.73006412 77746
FLOCK 2E-4              
1 41487U 98067JH  17270.43322749  .00031894  00000-0  24328-3 0  9992
2 41487  51.6339 215.0633 0003934 110.6069 249.5352 15.71909956 77786
FLOCK 2E-6              
1 41563U 98067JM  17270.28245918  .00026642  00000-0  22285-3 0  9997
2 41563  51.6334 219.3108 0000429 118.7423 241.3617 15.69803343 75781
FLOCK 2E-5              
1 41564U 98067JN  17270.29812056  .00027347  00000-0  22863-3 0  9997
2 41564  51.6340 219.4259 0000666  90.9913 269.1160 15.69799998 75775
FLOCK 2E-7              
1 41565U 98067JP  17270.31503199  .00040581  00000-0  27618-3 0  9994
2 41565  51.6323 212.7174 0004226 127.1954 232.9432 15.74465394 75768
FLOCK 2E'-5             
1 41567U 98067JR  17270.28725000  .00025436  00000-0  22190-3 0  9991
2 41567  51.6347 221.6332 0003995 139.6516 220.4778 15.68802013 75610
FLOCK 2E'-6             
1 41568U 98067JS  17270.45039146  .00031560  00000-0  24758-3 0  9997
2 41568  51.6334 216.6529 0003837 135.6691 224.4615 15.71246678 75723
FLOCK 2E'-8             
1 41569U 98067JT  17270.39208365  .00042602  00000-0  28518-3 0  9999
2 41569  51.6325 211.7288 0003014 100.3213 259.8126 15.74830475 75667
FLOCK 2E'-7             
1 41570U 98067JU  17270.25963957  .00730357  24888-3  15213-2 0  9992
2 41570  51.6317 204.7807 0006328 179.0577 181.0445 15.98450289 75764
FLOCK 2E-9              
1 41571U 98067JV  17270.26744331  .00045290  00000-0  28679-3 0  9990
2 41571  51.6337 210.9104 0003431 119.8193 240.3149 15.76077933 75648
FLOCK 2E-10             
1 41572U 98067JW  17270.23627483  .00036748  00000-0  26015-3 0  9996
2 41572  51.6327 214.4772 0004269 129.5173 230.6204 15.73594847 75597
FLOCK 2E-12             
1 41573U 98067JX  17270.29848239  .00041991  00000-0  27853-3 0  9994
2 41573  51.6327 212.6113 0003854 135.2712 224.8599 15.75045070 75626
FLOCK 2E-11             
1 41574U 98067JY  17270.41191334  .00041012  00000-0  27170-3 0  9992
2 41574  51.6296 211.0593 0004083 144.8259 215.3011 15.75083877 75658
FLOCK 2E'-9             
1 41575U 98067JZ  17270.19854426  .00050750  00000-0  31109-3 0  9992
2 41575  51.6313 210.3479 0003675 146.9987 213.1243 15.76766570 75631
FLOCK 2E'-10            
1 41576U 98067KA  17270.21244119  .00046826  00000-0  30238-3 0  9999
2 41576  51.6336 212.8240 0003790 150.4836 209.6379 15.75613572 75509
FLOCK 2E'-11            
1 41577U 98067KB  17270.42421691  .00038997  00000-0  26914-3 0  9991
2 41577  51.6333 212.7548 0004240 134.9887 225.1456 15.74159352 75342
FLOCK 2E'-12            
1 41578U 98067KC  17270.25039573  .00053296  00000-0  32739-3 0  9998
2 41578  51.6303 211.4794 0005133 128.9528 231.1930 15.76689941 75344
FLOCK 2P-6              
1 41606U 16040H   17270.36973579  .00005537  00000-0  23959-3 0  9995
2 41606  97.4491 332.2512 0012475  79.6179 280.6463 15.22777392 70257
FLOCK 2P-11             
1 41608U 16040K   17270.37413292  .00005789  00000-0  24999-3 0  9993
2 41608  97.4486 332.2225 0012342  79.9607 280.3022 15.22828096 70195
FLOCK 2P-2              
1 41609U 16040L   17270.58881245  .00005914  00000-0  25564-3 0  9993
2 41609  97.4492 332.4254 0012392  78.9940 281.2690 15.22779896 70207
FLOCK 2P-9              
1 41610U 16040M   17270.59966789  .00006027  00000-0  26047-3 0  9996
2 41610  97.4490 332.3941 0012699  78.8010 281.4654 15.22776877 70080
